[{"OBJECT_NAME":"HYPERFIELD-1A","OBJECT_ID":"2024-149CY","EPOCH":"2026-03-09T18:21:25.814304","MEAN_MOTION":15.29681349,"ECCENTRICITY":0.00038648,"INCLINATION":97.3842,"RA_OF_ASC_NODE":149.5066,"ARG_OF_PERICENTER":313.7844,"MEAN_ANOMALY":46.3076,"EPHEMERIS_TYPE":0,"CLASSIFICATION_TYPE":"U","NORAD_CAT_ID":60562,"ELEMENT_SET_NO":999,"REV_AT_EPOCH":8683,"BSTAR":0.00030052114,"MEAN_MOTION_DOT":8.569e-5,"MEAN_MOTION_DDOT":0},{"OBJECT_NAME":"STARLINK-34924","OBJECT_ID":"2025-195M","EPOCH":"2026-03-09T20:14:46.901760","MEAN_MOTION":15.3020956,"ECCENTRICITY":0.00013263,"INCLINATION":53.1607,"RA_OF_ASC_NODE":257.7223,"ARG_OF_PERICENTER":75.7,"MEAN_ANOMALY":284.4148,"EPHEMERIS_TYPE":0,"CLASSIFICATION_TYPE":"U","NORAD_CAT_ID":65469,"ELEMENT_SET_NO":999,"REV_AT_EPOCH":3001,"BSTAR":0.00096057803,"MEAN_MOTION_DOT":0.00028207,"MEAN_MOTION_DDOT":0}]
